NORAD_CAT_ID,OBJECT_NAME,OBJECT_TYPE,EPOCH,MEAN_MOTION,ECCENTRICITY,INCLINATION,RA_OF_ASC_NODE,ARG_OF_PERICENTER,MEAN_ANOMALY,BSTAR,MEAN_MOTION_DOT,MEAN_MOTION_DDOT,TLE_LINE0,TLE_LINE1,TLE_LINE2,SEMIMAJOR_AXIS,PERIOD,APOGEE,PERIGEE,DECAYED
54094.0,STARLINK-5219,PAYLOAD,2022-12-10 00:00:00,15.49840873,9.64e-05,53.2145,259.3673,89.6003,135.2419,-6.3495e-05,-4.047e-05,0.0,0 STARLINK-5219,1 54094U 22136AV  22344.00001157 -.00004047  00000-0 -63495-4 0  9993,2 54094  53.2145 259.3673 0000964  89.6003 135.2419 15.49840873  8411,6795.328,92.913,417.848,416.538,0.0
54094.0,STARLINK-5219,PAYLOAD,2022-12-10 14:00:01,15.503461499999998,0.0001072,53.2165,256.5737,106.7006,134.5666,-0.018586,-0.00980826,0.0,0 STARLINK-5219,1 54094U 22136AV  22344.58334491 -.00980826  00000-0 -18586-1 0  9992,2 54094  53.2165 256.5737 0001072 106.7006 134.5666 15.50346150  1306,6793.852,92.882,416.445,414.98800000000006,0.0
54094.0,STARLINK-5219,PAYLOAD,2022-12-10 16:00:00,15.50426312,8.540000000000003e-05,53.2164,256.1744,91.1235,255.4006,-0.02816,-0.01454556,0.0,0 STARLINK-5219,1 54094U 22136AV  22344.66667824 -.01454556  00000-0 -28160-1 0  9996,2 54094  53.2164 256.1744 0000854  91.1235 255.4006 15.50426312  8528,6793.6169999999975,92.878,416.06300000000016,414.902,0.0
54094.0,STARLINK-5219,PAYLOAD,2022-12-10 22:00:00,15.49540001,0.0001192,53.2176,254.9793,87.9363,214.4073,-0.022244,-0.01125241,0.0,0 STARLINK-5219,1 54094U 22136AV  22344.91667824 -.01125241  00000-0 -22244-1 0  9997,2 54094  53.2176 254.9793 0001192  87.9363 214.4073 15.49540001  1300,6796.208000000001,92.931,418.883,417.263,0.0
54094.0,STARLINK-5219,PAYLOAD,2022-12-11 00:00:00,15.49339767,0.0001106,53.2175,254.5818,75.8732,331.5612,-0.0225,-0.01146297,0.0,0 STARLINK-5219,1 54094U 22136AV  22345.00001157 -.01146297  00000-0 -22500-1 0  9998,2 54094  53.2175 254.5818 0001106  75.8732 331.5612 15.49339767  8575,6796.793000000002,92.943,419.41,417.907,0.0
54094.0,STARLINK-5219,PAYLOAD,2022-12-11 14:00:01,15.47912767,0.0001052,53.2174,251.7976,91.2134,330.1602,-0.023553,-0.01141455,0.0,0 STARLINK-5219,1 54094U 22136AV  22345.58334491 -.01141455  00000-0 -23553-1 0  9991,2 54094  53.2174 251.7976 0001052  91.2134 330.1602 15.47912767  1309,6800.97,93.028,423.55,422.119,0.0
54094.0,STARLINK-5219,PAYLOAD,2022-12-11 22:00:01,15.47100361,0.0001254,53.2174,250.2113,73.256,46.229,-0.024276,-0.01143396,0.0,0 STARLINK-5219,1 54094U 22136AV  22345.91668981 -.01143396  00000-0 -24276-1 0  9991,2 54094  53.2174 250.2113 0001254  73.2560  46.2290 15.47100361  8712,6803.351,93.077,426.069,424.362,0.0
54094.0,STARLINK-5219,PAYLOAD,2022-12-12 14:00:01,15.45471744,0.0001271,53.2173,247.0413,100.6241,131.96,-0.025622,-0.01140746,0.0,0 STARLINK-5219,1 54094U 22136AV  22346.58334491 -.01140746  00000-0 -25622-1 0  9993,2 54094  53.2173 247.0413 0001271 100.6241 131.9600 15.45471744  1307,6808.129,93.175,430.86,429.129,0.0
54094.0,STARLINK-5219,PAYLOAD,2022-12-12 22:00:00,15.44667125,0.0001256,53.2169,245.4616,108.6604,179.0327,-0.026662,-0.01153463,0.0,0 STARLINK-5219,1 54094U 22136AV  22346.91667824 -.01153463  00000-0 -26662-1 0  9994,2 54094  53.2169 245.4616 0001256 108.6604 179.0327 15.44667125  1301,6810.493,93.224,433.214,431.503,0.0
54094.0,STARLINK-5219,PAYLOAD,2022-12-13 14:00:01,15.43029564,0.0001102,53.2173,242.3024,110.7826,284.212,-0.027817,-0.01139325,0.0,0 STARLINK-5219,1 54094U 22136AV  22347.58334491 -.01139325  00000-0 -27817-1 0  9993,2 54094  53.2173 242.3024 0001102 110.7826 284.2120 15.43029564  1303,6815.311,93.323,437.927,436.425,0.0
54094.0,STARLINK-5219,PAYLOAD,2022-12-13 22:00:00,15.42217855,0.0001176,53.2175,240.7282,97.6959,349.4779,-0.02867,-0.01142223,0.0,0 STARLINK-5219,1 54094U 22136AV  22347.91667824 -.01142223  00000-0 -28670-1 0  9998,2 54094  53.2175 240.7282 0001176  97.6959 349.4779 15.42217855  9026,6817.7019999999975,93.372,440.369,438.765,0.0
54094.0,STARLINK-5219,PAYLOAD,2022-12-14 14:00:01,15.40591196,0.0001328,53.2169,237.5822,84.4924,104.1096,-0.030305,-0.01143218,0.0,0 STARLINK-5219,1 54094U 22136AV  22348.58334491 -.01143218  00000-0 -30305-1 0  9996,2 54094  53.2169 237.5822 0001328  84.4924 104.1096 15.40591196  1300,6822.5,93.471,445.271,443.459,0.0
54094.0,STARLINK-5219,PAYLOAD,2022-12-14 16:00:01,15.4038479,0.0001218,53.2175,237.1888,91.3014,199.7698,-0.03037,-0.01138248,0.0,0 STARLINK-5219,1 54094U 22136AV  22348.66668981 -.01138248  00000-0 -30370-1 0  9998,2 54094  53.2175 237.1888 0001218  91.3014 199.7698 15.40384790  9148,6823.11,93.483,445.806,444.144,0.0
54094.0,STARLINK-5219,PAYLOAD,2022-12-14 22:00:00,15.39787973,0.0001337,53.2171,236.0133,108.0277,129.816,-0.031541,-0.01157165,0.0,0 STARLINK-5219,1 54094U 22136AV  22348.91667824 -.01157165  00000-0 -31541-1 0  9991,2 54094  53.2171 236.0133 0001337 108.0277 129.8160 15.39787973  1300,6824.873000000001,93.519,447.65,445.825,0.0
54094.0,STARLINK-5219,PAYLOAD,2022-12-15 14:00:01,15.38146021,0.0001146,53.2173,232.8772,105.3536,228.0592,-0.032654,-0.0113669,0.0,0 STARLINK-5219,1 54094U 22136AV  22349.58334491 -.01136690  00000-0 -32654-1 0  9992,2 54094  53.2173 232.8772 0001146 105.3536 228.0592 15.38146021  1304,6829.729,93.619,452.377,450.811,0.0
54094.0,STARLINK-5219,PAYLOAD,2022-12-15 16:00:00,15.37944002,0.0001176,53.2176,232.4859,95.8512,339.2309,-0.032916,-0.01138121,0.0,0 STARLINK-5219,1 54094U 22136AV  22349.66667824 -.01138121  00000-0 -32916-1 0  9992,2 54094  53.2176 232.4859 0001176  95.8512 339.2309 15.37944002  9290,6830.3269999999975,93.631,452.995,451.389,0.0
54094.0,STARLINK-5219,PAYLOAD,2022-12-15 22:00:00,15.3733497,0.0001115,53.2175,231.3147,94.7796,284.9448,-0.033648,-0.01140276,0.0,0 STARLINK-5219,1 54094U 22136AV  22349.91667824 -.01140276  00000-0 -33648-1 0  9997,2 54094  53.2175 231.3147 0001115  94.7796 284.9448 15.37334970  1303,6832.130999999999,93.669,454.758,453.234,0.0
54094.0,STARLINK-5219,PAYLOAD,2022-12-16 14:00:01,15.35706846,0.0001228,53.2174,228.1906,98.5439,10.8761,-0.035457,-0.01139807,0.0,0 STARLINK-5219,1 54094U 22136AV  22350.58334491 -.01139807  00000-0 -35457-1 0  9991,2 54094  53.2174 228.1906 0001228  98.5439  10.8761 15.35706846  1307,6836.959,93.768,459.663,457.984,0.0
54094.0,STARLINK-5219,PAYLOAD,2022-12-16 16:00:00,15.35503767,0.0001398,53.2175,227.8011,103.9526,106.4034,-0.035651,-0.01138707,0.0,0 STARLINK-5219,1 54094U 22136AV  22350.66667824 -.01138707  00000-0 -35651-1 0  9993,2 54094  53.2175 227.8011 0001398 103.9526 106.4034 15.35503767  9442,6837.562,93.78,460.382,458.471,0.0
54094.0,STARLINK-5219,PAYLOAD,2022-12-16 22:00:00,15.3489258,0.0001332,53.2173,226.634,94.2592,58.5402,-0.036351,-0.0113846,0.0,0 STARLINK-5219,1 54094U 22136AV  22350.91667824 -.01138460  00000-0 -36351-1 0  9995,2 54094  53.2173 226.6340 0001332  94.2592  58.5402 15.34892580  1301,6839.377,93.818,462.153,460.331,0.0
54094.0,STARLINK-5219,PAYLOAD,2022-12-17 14:00:01,15.33268889,0.000134,53.2168,223.5223,97.2132,139.4758,-0.038486,-0.01143883,0.0,0 STARLINK-5219,1 54094U 22136AV  22351.58335648 -.01143883  00000-0 -38486-1 0  9991,2 54094  53.2168 223.5223 0001340  97.2132 139.4758 15.33268889  1304,6844.204000000002,93.917,466.986,465.152,0.0
54094.0,STARLINK-5219,PAYLOAD,2022-12-17 22:00:00,15.32464675,0.0001351999999999,53.2169,221.9714,116.6751,160.3912,-0.039963,-0.01156656,0.0,0 STARLINK-5219,1 54094U 22136AV  22351.91667824 -.01156656  00000-0 -39963-1 0  9995,2 54094  53.2169 221.9714 0001352 116.6751 160.3912 15.32464675  1303,6846.598000000001,93.966,469.389,467.538,0.0
54094.0,STARLINK-5219,PAYLOAD,2022-12-18 14:00:01,15.30821726,0.0001301,53.2173,218.8696,121.2929,233.7417,-0.041197,-0.01134401,0.0,0 STARLINK-5219,1 54094U 22136AV  22352.58334491 -.01134401  00000-0 -41197-1 0  9996,2 54094  53.2173 218.8696 0001301 121.2929 233.7417 15.30821726  9748,6851.496,94.067,474.253,472.47,0.0
54094.0,STARLINK-5219,PAYLOAD,2022-12-18 22:00:00,15.30011512,0.0001161,53.2173,217.3247,93.8715,298.6737,-0.042473,-0.01139782,0.0,0 STARLINK-5219,1 54094U 22136AV  22352.91667824 -.01139782  00000-0 -42473-1 0  9997,2 54094  53.2173 217.3247 0001161  93.8715 298.6737 15.30011512  1308,6853.915,94.117,476.576,474.984,0.0
54094.0,STARLINK-5219,PAYLOAD,2022-12-19 12:00:00,15.28583238,0.0001122,53.2172,214.6207,103.2399,262.6031,-0.044098,-0.01132792,0.0,0 STARLINK-5219,1 54094U 22136AV  22353.50001157 -.01132792  00000-0 -44098-1 0  9993,2 54094  53.2172 214.6207 0001122 103.2399 262.6031 15.28583238  9889,6858.184,94.205,480.818,479.279,0.0
54094.0,STARLINK-5219,PAYLOAD,2022-12-19 22:00:00,15.27569194,0.0001347,53.2173,212.696,90.3626,48.8553,-0.045707,-0.01137647,0.0,0 STARLINK-5219,1 54094U 22136AV  22353.91667824 -.01137647  00000-0 -45707-1 0  9999,2 54094  53.2173 212.6960 0001347  90.3626  48.8553 15.27569194  1308,6861.218000000003,94.267,484.008,482.159,0.0
54094.0,STARLINK-5219,PAYLOAD,2022-12-20 14:00:01,15.25947422,0.0001413,53.2168,209.6187,90.9006,114.5403,-0.04834,-0.0115979,0.0,0 STARLINK-5219,1 54094U 22136AV  22354.58334491 -.01159790  00000-0 -48340-1 0  9993,2 54094  53.2168 209.6187 0001413  90.9006 114.5403 15.25947422  1308,6866.079000000002,94.368,488.914,486.974,0.0
54094.0,STARLINK-5219,PAYLOAD,2022-12-21 08:00:01,15.24110375,0.0001215,53.2175,206.1666,114.0581,251.2148,-0.050728,-0.01152044,0.0,0 STARLINK-5219,1 54094U 22136AV  22355.33334491 -.01152044  00000-0 -50728-1 0  9995,2 54094  53.2175 206.1666 0001215 114.0581 251.2148 15.24110375 10163,6871.595,94.481,494.295,492.625,0.0
54094.0,STARLINK-5219,PAYLOAD,2022-12-21 14:00:01,15.23498111,0.0001408,53.2175,205.0176,116.6661,180.7835,-0.05145,-0.01147609,0.0,0 STARLINK-5219,1 54094U 22136AV  22355.58334491 -.01147609  00000-0 -51450-1 0  9996,2 54094  53.2175 205.0176 0001408 116.6661 180.7835 15.23498111  1309,6873.436,94.519,496.269,494.333,0.0
